TERRESTAR-1             
1 35496U 09035A   21281.22315271 -.00000057  00000-0  00000+0 0  9993
2 35496   2.8868  32.5381 0002781 166.4831 147.4133  1.00272609 44985
ASIASAT 5               
1 35696U 09042A   21280.90853914 -.00000309  00000-0  00000-0 0  9999
2 35696   0.0337 260.5261 0001312 289.6978 254.1172  1.00274951 44506
JCSAT-RA (JCSAT-12)     
1 35755U 09044A   21281.22577036 -.00000162  00000-0  00000+0 0  9997
2 35755   0.0191 203.5463 0001593 261.8820 150.5206  1.00136575 44483
OPTUS D3                
1 35756U 09044B   21281.22469295 -.00000149  00000-0  00000+0 0  9990
2 35756   0.0467  23.7902 0002333 176.1045  54.0756  1.00270815 44451
NIMIQ 5                 
1 35873U 09050A   21280.87400076 -.00000258  00000-0  00000-0 0  9991
2 35873   0.0384  99.3755 0003064 102.3295  56.9839  1.00270038 44173
AMAZONAS 2              
1 35942U 09054A   21280.87635566 -.00000283  00000-0  00000-0 0  9994
2 35942   0.0488 121.6780 0004911  57.9754  91.6058  1.00271343 44000
COMSATBW-1              
1 35943U 09054B   21280.90103837  .00000023  00000-0  00000-0 0  9991
2 35943   0.0377  87.7840 0002705  95.3316 221.0944  1.00268343 44128
NSS-12                  
1 36032U 09058A   21280.89981733  .00000070  00000-0  00000-0 0  9994
2 36032   0.0440  73.3333 0002720 124.5157 199.8662  1.00270274 43733
THOR 6                  
1 36033U 09058B   21280.88830453 -.00000011  00000-0  00000-0 0  9992
2 36033   0.0108 202.4715 0001701   1.9846 131.2595  1.00271785 43828
INTELSAT 14 (IS-14)     
1 36097U 09064A   21281.17827111 -.00000275  00000-0  00000+0 0  9990
2 36097   0.0180 175.5873 0002458  23.4230 197.2266  1.00272135 43512
EUTELSAT 36B            
1 36101U 09065A   21281.25812963  .00000154  00000-0  00000+0 0  9990
2 36101   0.0683  16.5422 0004706 176.7449 312.6497  1.00271796 43636
INTELSAT 15 (IS-15)     
1 36106U 09067A   21280.89570392 -.00000187  00000-0  00000-0 0  9991
2 36106   0.0184 277.6062 0002153 275.8972 230.8733  1.00270713 24049
WGS F3 (USA 211)        
1 36108U 09068A   21280.61133472  .00000017  00000-0  00000-0 0  9999
2 36108   0.0492  95.7720 0002840 193.8368 185.0892  1.00270492 29433
DIRECTV 12              
1 36131U 09075A   21281.22801516 -.00000105  00000-0  00000+0 0  9990
2 36131   0.0107 204.1794 0000101 244.3392 267.9095  1.00269038 43217
BEIDOU 3                
1 36287U 10001A   21280.56368939 -.00000281  00000-0  00000+0 0  9991
2 36287   1.6675  40.8553 0002428  78.6129 240.3318  1.00271016 42978
RADUGA-1M 2             
1 36358U 10002A   21280.69014487 -.00000185  00000-0  00000-0 0  9995
2 36358   0.0708 260.8525 0002847 318.5056 130.6657  1.00270390 32914
SDO                     
1 36395U 10005A   21280.52423310 -.00000040  00000-0  00000+0 0  9999
2 36395  31.1677 113.3517 0000334 264.8821  85.2114  1.00273765 42845
INTELSAT 16 (IS-16)     
1 36397U 10006A   21280.87330302 -.00000246  00000-0  00000-0 0  9997
2 36397   0.0137 263.7382 0002012 285.8121  65.3951  1.00271955 42470
GOES 15                 
1 36411U 10008A   21280.64766965  .00000053  00000-0  00000-0 0  9994
2 36411   0.3678 275.6920 0000906 232.1334 333.9433  1.00262356 42497
ECHOSTAR 14             
1 36499U 10010A   21280.93653617 -.00000001  00000-0  00000+0 0  9997
2 36499   0.0168 227.3428 0002941 325.4182  42.3141  1.00271374 42351
SES-1                   
1 36516U 10016A   21280.86833157 -.00000115  00000-0  00000-0 0  9991
2 36516   0.0133 218.6512 0002431 331.1491  38.5040  1.00270280 41866
ASTRA 3B                
1 36581U 10021A   21280.89318875  .00000136  00000-0  00000-0 0  9999
2 36581   0.0802  70.1329 0003685 122.2359 169.4211  1.00271390 41690
COMSATBW-2              
1 36582U 10021B   21280.89109550  .00000087  00000-0  00000-0 0  9993
2 36582   0.0380  93.2733 0002367 117.1423 140.3317  1.00270021 41772
BADR-5                  
1 36592U 10025A   21281.18079361  .00000144  00000-0  00000+0 0  9990
2 36592   0.0149 166.3546 0005500  18.0732 283.7400  1.00275293 41720
COMS 1                  
1 36744U 10032A   21280.91403389 -.00000345  00000-0  00000-0 0  9993
2 36744   0.4798  95.9654 0000734  85.4834 292.5592  1.00270122 33913
ARABSAT-5A              
1 36745U 10032B   21280.82280369  .00000152  00000-0  00000+0 0  9999
2 36745   0.0619  32.7005 0004938 168.9891 141.6862  1.00272047 41440
ECHOSTAR 15             
1 36792U 10034A   21280.87618120 -.00000283  00000-0  00000-0 0  9995
2 36792   0.0439  76.8531 0002012  96.6441  97.0145  1.00274206 41159
BEIDOU 5                
1 36828U 10036A   21280.87227631 -.00000113  00000-0  00000-0 0  9992
2 36828  54.1813 178.5566 0023165 180.2615  79.1658  1.00271076 41048
NILESAT 201             
1 36830U 10037A   21280.88708347 -.00000059  00000-0  00000-0 0  9994
2 36830   0.0500 150.0272 0004438  24.3402 154.7369  1.00272207 41188
RASCOM-QAF 1R           
1 36831U 10037B   21280.88908949  .00000017  00000-0  00000-0 0  9998
2 36831   0.0202 146.1381 0005876  68.3589 125.2204  1.00271981 41118
AEHF-1 (USA 214)        
1 36868U 10039A   21280.81748339  .00000028  00000-0  00000-0 0  9990
2 36868   3.9001  90.1667 0004761  51.3934 173.5146  1.00267242 36479
CHINASAT 6A (ZX 6A)     
1 37150U 10042A   21280.91342336 -.00000355  00000-0  00000-0 0  9991
2 37150   0.0115 215.0169 0001522 293.4659 322.1873  1.00268934 40729
QZS-1 (MICHIBIKI-1)     
1 37158U 10045A   21280.91822036 -.00000090  00000-0  00000+0 0  9997
2 37158  42.0697 136.8933 0747618 270.2212  80.6858  1.00293202 40532
XM-5                    
1 37185U 10053A   21280.58443648 -.00000206  00000-0  00000-0 0  9997
2 37185   0.0142 214.5849 0000392  21.6512 265.5216  1.00269986 40302
BSAT-3B                 
1 37207U 10056B   21280.98412619 -.00000352  00000-0  00000+0 0  9994
2 37207   0.0605  13.9884 0002431 251.8436 215.1662  1.00271412 40098
BEIDOU 6                
1 37210U 10057A   21280.84853306 -.00000113  00000-0  00000-0 0  9992
2 37210   0.7365  37.3913 0004388 144.2598 300.4763  1.00273493 40105
SKYTERRA 1              
1 37218U 10061A   21281.24167204 -.00000118  00000-0  00000+0 0  9999
2 37218   2.2179  22.1933 0003667 169.1594 171.4388  1.00272024 40050
ZHONGXING-20A           
1 37234U 10064A   21280.91368501 -.00000350  00000-0  00000-0 0  9995
2 37234   2.0150  91.4007 0002481 122.9587 257.7333  1.00267399 39851
HYLAS 1                 
1 37237U 10065A   21280.71587424  .00000101  00000-0  00000-0 0  9997
2 37237   1.2808  92.7389 0002294 177.5961 218.0638  1.00595129 39804
INTELSAT 17 (IS-17)     
1 37238U 10065B   21280.88560538 -.00000003  00000-0  00000+0 0  9994
2 37238   0.0347 141.5655 0002740  60.2278 199.7865  1.00271754 39749
BEIDOU 7                
1 37256U 10068A   21280.42895905 -.00000186  00000-0  00000+0 0  9998
2 37256  50.6664 292.6706 0017986 189.2977 157.6986  1.00273660 39603
EUTELSAT KA-SAT 9A      
1 37258U 10069A   21280.81853001  .00000060  00000-0  00000-0 0  9996
2 37258   0.0730 264.5013 0004204 253.1767 162.6948  1.00270570 26825
HISPASAT 30W-5          
1 37264U 10070A   21281.17271682 -.00000218  00000-0  00000+0 0  9999
2 37264   0.0399 116.4626 0005361  61.8273 230.9110  1.00269846 39490
KOREASAT 6              
1 37265U 10070B   21280.88364179 -.00000363  00000-0  00000+0 0  9992
2 37265   0.0128 215.6099 0001911   7.3186 227.9274  1.00269462 39505
BEIDOU 8                
1 37384U 11013A   21280.72380925 -.00000171  00000-0  00000-0 0  9990
2 37384  59.9328  56.7754 0019073 180.9906 145.7079  1.00276431 38480
INTELSAT NEW DAWN       
1 37392U 11016A   21280.82323978  .00000154  00000-0  00000-0 0  9998
2 37392   0.0180 223.9819 0001487 314.6483 167.2369  1.00273010 36106
YAHSAT 1A               
1 37393U 11016B   21280.61182299  .00000100  00000-0  00000-0 0  9996
2 37393   0.0182 230.8097 0000916 328.7167  89.7182  1.00269156 25212
SBIRS GEO-1 (USA 230)   
1 37481U 11019A   21281.11703715 -.00000009  00000-0  00000+0 0  9993
2 37481   1.8071   8.9857 0002336 184.8266 291.5088  1.00272402 38167
TELSTAR 14R             
1 37602U 11021A   21280.87591955 -.00000281  00000-0  00000-0 0  9997
2 37602   0.0529  77.5520 0000200 107.9035  83.6353  1.00271272 38640
GSAT-8                  
1 37605U 11022A   21280.89946845  .00000083  00000-0  00000-0 0  9994
2 37605   0.0450  96.1831 0005840 156.8079 142.6837  1.00272496 36037
ST-2                    
1 37606U 11022B   21280.95296970 -.00000213  00000-0  00000-0 0  9995
2 37606   0.0143 218.3002 0001700 346.3328 243.2619  1.00272836 38091
CHINASAT 10 (ZX 10)     
1 37677U 11026A   21280.78584387 -.00000353  00000-0  00000-0 0  9995
2 37677   0.0966 261.3745 0004808 281.4357 227.2493  1.00268591 37811
TIANLIAN 1-02           
1 37737U 11032A   21280.85071351 -.00000016  00000-0  00000+0 0  9994
2 37737   2.5673  74.8171 0020285 105.4209 313.7274  1.00270894 37545
GSAT-12                 
1 37746U 11034A   21281.18515451  .00000124  00000-0  00000+0 0  9996
2 37746   0.7425  95.3511 0008627  11.0063  25.2846  1.00271671 37782
SES-3                   
1 37748U 11035A   21281.22801485 -.00000103  00000-0  00000+0 0  9997
2 37748   0.0508  62.1501 0002968 140.0646 153.9706  1.00271608 37528
KAZSAT-2                
1 37749U 11035B   21281.12104919 -.00000200  00000-0  00000+0 0  9993
2 37749   0.0462 306.8615 0000467 320.7549 239.4717  1.00273348 37393
BEIDOU 9                
1 37763U 11038A   21280.87197594 -.00000069  00000-0  00000-0 0  9998
2 37763  54.4689 181.0175 0086612 226.7584  17.0670  1.00286982 37461
ASTRA 1N                
1 37775U 11041A   21280.41021450  .00000119  00000-0  00000-0 0  9997
2 37775   0.0645  30.9040 0001379 114.7995  37.4950  1.00274421 27343
BSAT-3C (JCSAT-110R)    
1 37776U 11041B   21280.92432528 -.00000352  00000-0  00000-0 0  9996
2 37776   0.0518  63.6580 0000232   5.7178  30.1430  1.00270956 33309
PAKSAT-1R               
1 37779U 11042A   21281.18314851  .00000152  00000-0  00000+0 0  9993
2 37779   0.0348  47.2122 0000225 241.4093 192.3726  1.00273567 37102
